NORAD_CAT_ID,OBJECT_NAME,OBJECT_TYPE,EPOCH,MEAN_MOTION,ECCENTRICITY,INCLINATION,RA_OF_ASC_NODE,ARG_OF_PERICENTER,MEAN_ANOMALY,BSTAR,MEAN_MOTION_DOT,MEAN_MOTION_DDOT,TLE_LINE0,TLE_LINE1,TLE_LINE2,SEMIMAJOR_AXIS,PERIOD,APOGEE,PERIGEE,DECAYED
51726.0,STARLINK-3527,PAYLOAD,2023-02-06 05:01:23,15.08845933,0.0001108,53.2173,340.5807,87.4327,272.6792,0.00013263,1.824e-05,0.0,0 STARLINK-3527,1 51726U 22016N   23037.20930483  .00001824  00000-0  13263-3 0  9999,2 51726  53.2173 340.5807 0001108  87.4327 272.6792 15.08845933 54417,6917.862,95.437,540.494,538.961,0.0
51726.0,STARLINK-3527,PAYLOAD,2023-02-06 20:55:15,15.08843944,0.0001102,53.2174,337.6079,89.2386,270.8733,8.1616e-05,1.011e-05,0.0,0 STARLINK-3527,1 51726U 22016N   23037.87170651  .00001011  00000-0  81616-4 0  9991,2 51726  53.2174 337.6079 0001102  89.2386 270.8733 15.08843944 53453,6917.868,95.437,540.496,538.971,0.0
51726.0,STARLINK-3527,PAYLOAD,2023-02-07 04:52:10,15.08857569,0.0001133,53.2167,336.1202,81.6855,278.4266,0.00037908,5.753e-05,0.0,0 STARLINK-3527,1 51726U 22016N   23038.20290027  .00005753  00000-0  37908-3 0  9990,2 51726  53.2167 336.1202 0001133  81.6855 278.4266 15.08857569 53507,6917.827,95.436,540.475,538.908,0.0
51726.0,STARLINK-3527,PAYLOAD,2023-02-07 20:46:02,15.08843252,9.31e-05,53.2162,333.1472,89.2416,270.8683,9.013e-05,1.147e-05,0.0,0 STARLINK-3527,1 51726U 22016N   23038.86530447  .00001147  00000-0  90130-4 0  9995,2 51726  53.2162 333.1472 0000931  89.2416 270.8683 15.08843252 53604,6917.87,95.437,540.38,539.091,0.0
51726.0,STARLINK-3527,PAYLOAD,2023-02-07 22:21:25,15.0884435,0.0001142,53.2162,332.8498,83.706,276.4062,0.00012144,1.646e-05,0.0,0 STARLINK-3527,1 51726U 22016N   23038.93154467  .00001646  00000-0  12144-3 0  9999,2 51726  53.2162 332.8498 0001142  83.7060 276.4062 15.08844350 54678,6917.867,95.437,540.522,538.942,0.0
51726.0,STARLINK-3527,PAYLOAD,2023-02-08 06:18:20,15.08869041,9.63e-05,53.2159,331.3631,96.9828,263.1274,0.0011518,0.00018105,0.0,0 STARLINK-3527,1 51726U 22016N   23039.26273718  .00018105  00000-0  11518-2 0  9998,2 51726  53.2159 331.3631 0000963  96.9828 263.1274 15.08869041 54723,6917.792,95.436,540.323,538.99,0.0
51726.0,STARLINK-3527,PAYLOAD,2023-02-08 07:53:43,15.08878122,9.98e-05,53.2155,331.0653,96.622,263.4886,0.001501,0.00023706,0.0,0 STARLINK-3527,1 51726U 22016N   23039.32897514  .00023706  00000-0  15010-2 0  9995,2 51726  53.2155 331.0653 0000998  96.6220 263.4886 15.08878122 53676,6917.764,95.435,540.319,538.938,0.0
51726.0,STARLINK-3527,PAYLOAD,2023-02-08 20:36:49,15.08832733,0.0001007,53.216,328.6866,106.4584,253.6519,0.0010483,0.00016432,0.0,0 STARLINK-3527,1 51726U 22016N   23039.85890831  .00016432  00000-0  10483-2 0  9995,2 51726  53.2160 328.6866 0001007 106.4584 253.6519 15.08832733 53756,6917.903,95.438,540.464,539.071,0.0
51726.0,STARLINK-3527,PAYLOAD,2023-02-09 04:33:45,15.088636,0.000127,53.2157,327.1998,76.9909,283.1225,0.0031166,0.00049695,0.0,0 STARLINK-3527,1 51726U 22016N   23040.19010832  .00049695  00000-0  31166-2 0  9997,2 51726  53.2157 327.1998 0001270  76.9909 283.1225 15.08863600 54868,6917.808,95.436,540.552,538.795,0.0
51726.0,STARLINK-3527,PAYLOAD,2023-02-09 22:03:00,15.08864248,0.0001187,53.2153,323.9289,86.9937,273.119,0.0027173,0.00043252,0.0,0 STARLINK-3527,1 51726U 22016N   23040.91875371  .00043252  00000-0  27173-2 0  9990,2 51726  53.2153 323.9289 0001187  86.9937 273.1190 15.08864248 54971,6917.806,95.436,540.492,538.85,0.0
51726.0,STARLINK-3527,PAYLOAD,2023-02-10 01:13:46,15.0886443,0.0001221,53.2152,323.3339,89.2325,270.8807,0.0025302,0.00040237,0.0,0 STARLINK-3527,1 51726U 22016N   23041.05123266  .00040237  00000-0  25302-2 0  9997,2 51726  53.2152 323.3339 0001221  89.2325 270.8807 15.08864430 53933,6917.806,95.436,540.515,538.826,0.0
51726.0,STARLINK-3527,PAYLOAD,2023-02-10 04:24:32,15.08880709,0.0001508,53.2158,322.7394,59.3313,300.7828,0.0030544,0.00048713,0.0,0 STARLINK-3527,1 51726U 22016N   23041.18371124  .00048713  00000-0  30544-2 0  9990,2 51726  53.2158 322.7394 0001508  59.3313 300.7828 15.08880709 53951,6917.756,95.435,540.664,538.578,0.0
51726.0,STARLINK-3527,PAYLOAD,2023-02-11 01:04:32,15.08883422,0.0001118,53.2156,318.8735,73.5311,286.5804,0.0026428,0.00042074,0.0,0 STARLINK-3527,1 51726U 22016N   23042.04482472  .00042074  00000-0  26428-2 0  9995,2 51726  53.2156 318.8735 0001118  73.5311 286.5804 15.08883422 55140,6917.748,95.435,540.386,538.839,0.0
51726.0,STARLINK-3527,PAYLOAD,2023-02-11 18:33:47,15.08844073,6.68e-05,53.2162,315.6007,70.8808,289.2257,0.0022571,0.00035821,0.0,0 STARLINK-3527,1 51726U 22016N   23042.77346841  .00035821  00000-0  22571-2 0  9991,2 51726  53.2162 315.6007 0000668  70.8808 289.2257 15.08844073 55257,6917.868,95.437,540.195,539.271,0.0
51726.0,STARLINK-3527,PAYLOAD,2023-02-12 02:30:43,15.08853263,8.76e-05,53.2157,314.1153,58.9061,301.2017,0.0025184,0.00040035,0.0,0 STARLINK-3527,1 51726U 22016N   23043.10466757  .00040035  00000-0  25184-2 0  9994,2 51726  53.2157 314.1153 0000876  58.9061 301.2017 15.08853263 55302,6917.84,95.437,540.311,539.099,0.0
51726.0,STARLINK-3527,PAYLOAD,2023-02-12 16:49:12,15.08844834,0.0002157,53.2152,311.4392,79.7169,280.4066,0.0017266,0.00027302,0.0,0 STARLINK-3527,1 51726U 22016N   23043.70083938  .00027302  00000-0  17266-2 0  9990,2 51726  53.2152 311.4392 0002157  79.7169 280.4066 15.08844834 55391,6917.866,95.437,541.223,538.238,0.0
51726.0,STARLINK-3527,PAYLOAD,2023-02-13 02:21:31,15.08832732,0.0001256,53.2155,309.6569,99.3431,260.7703,0.0011271,0.00017692,0.0,0 STARLINK-3527,1 51726U 22016N   23044.09828166  .00017692  00000-0  11271-2 0  9994,2 51726  53.2155 309.6569 0001256  99.3431 260.7703 15.08832732 55458,6917.903,95.438,540.636,538.899,0.0
51726.0,STARLINK-3527,PAYLOAD,2023-02-13 10:18:27,15.08837848,0.0001187,53.2165,308.1701,93.9152,266.1975,0.00075906,0.00011812,0.0,0 STARLINK-3527,1 51726U 22016N   23044.42948297  .00011812  00000-0  75906-3 0  9993,2 51726  53.2165 308.1701 0001187  93.9152 266.1975 15.08837848 54446,6917.887,95.438,540.573,538.931,0.0
51726.0,STARLINK-3527,PAYLOAD,2023-02-14 02:12:18,15.08841292,7.09e-05,53.2164,305.1943,82.7245,277.3827,0.00024955,3.686e-05,0.0,0 STARLINK-3527,1 51726U 22016N   23045.09188144  .00003686  00000-0  24955-3 0  9992,2 51726  53.2164 305.1943 0000709  82.7245 277.3827 15.08841292 55605,6917.876,95.437,540.232,539.251,0.0
51726.0,STARLINK-3527,PAYLOAD,2023-02-14 10:09:14,15.0884197,7.38e-05,53.2153,303.7064,71.3168,288.7904,0.00030518,4.573e-05,0.0,0 STARLINK-3527,1 51726U 22016N   23045.42308142  .00004573  00000-0  30518-3 0  9999,2 51726  53.2153 303.7064 0000738  71.3168 288.7904 15.08841970 54593,6917.874,95.437,540.25,539.229,0.0
51726.0,STARLINK-3527,PAYLOAD,2023-02-15 10:00:00,15.08850249,8.4e-05,53.216,299.2471,90.4237,269.6851,0.00019201,2.77e-05,0.0,0 STARLINK-3527,1 51726U 22016N   23046.41667496  .00002770  00000-0  19201-3 0  9992,2 51726  53.2160 299.2471 0000840  90.4237 269.6851 15.08850249 55808,6917.849,95.437,540.295,539.133,0.0
51726.0,STARLINK-3527,PAYLOAD,2023-02-15 16:21:33,15.08837463,9.91e-05,53.2154,298.0559,89.2388,270.8718,-1.9863e-05,-6.04e-06,0.0,0 STARLINK-3527,1 51726U 22016N   23046.68164061 -.00000604  00000-0 -19863-4 0  9992,2 51726  53.2154 298.0559 0000991  89.2388 270.8718 15.08837463 54780,6917.888,95.438,540.439,539.068,0.0
51726.0,STARLINK-3527,PAYLOAD,2023-02-16 09:50:47,15.08846303,9.8e-05,53.2172,294.7843,116.3205,243.7888,9.124e-05,1.165e-05,0.0,0 STARLINK-3527,1 51726U 22016N   23047.41027300  .00001165  00000-0  91240-4 0  9998,2 51726  53.2172 294.7843 0000980 116.3205 243.7888 15.08846303 54899,6917.861,95.437,540.404,539.048,0.0
51726.0,STARLINK-3527,PAYLOAD,2023-02-16 16:12:20,15.08825519,9.1e-05,53.2167,293.5947,131.8224,228.2846,-0.00033249,-5.573e-05,0.0,0 STARLINK-3527,1 51726U 22016N   23047.67524021 -.00005573  00000-0 -33249-3 0  9991,2 51726  53.2167 293.5947 0000910 131.8224 228.2846 15.08825519 55991,6917.925,95.438,540.419,539.16,0.0
51726.0,STARLINK-3527,PAYLOAD,2023-02-16 19:23:06,15.08830683,0.000113,53.2141,293.0025,116.9485,243.1622,-0.00010893,-2.021e-05,0.0,0 STARLINK-3527,1 51726U 22016N   23047.80771928 -.00002021  00000-0 -10893-3 0  9991,2 51726  53.2141 293.0025 0001130 116.9485 243.1622 15.08830683 54954,6917.909,95.438,540.556,538.992,0.0
51726.0,STARLINK-3527,PAYLOAD,2023-02-16 22:33:53,15.08841099,7.95e-05,53.2152,292.4071,121.5847,238.5223,0.00029326,4.383e-05,0.0,0 STARLINK-3527,1 51726U 22016N   23047.94019720  .00004383  00000-0  29326-3 0  9993,2 51726  53.2152 292.4071 0000795 121.5847 238.5223 15.08841099 56039,6917.877,95.437,540.292,539.192,0.0
51726.0,STARLINK-3527,PAYLOAD,2023-02-17 09:41:35,15.08827643,0.0001114,53.216,290.326,107.506,252.6053,-4.2116e-05,-9.58e-06,0.0,0 STARLINK-3527,1 51726U 22016N   23048.40388444 -.00000958  00000-0 -42116-4 0  9996,2 51726  53.2160 290.3260 0001114 107.5060 252.6053 15.08827643 56107,6917.918,95.438,540.554,539.013,0.0
51726.0,STARLINK-3527,PAYLOAD,2023-02-17 22:24:41,15.08827188,0.0001259,53.215,287.9479,100.8945,259.2189,9.9451e-05,1.295e-05,0.0,0 STARLINK-3527,1 51726U 22016N   23048.93381110  .00001295  00000-0  99451-4 0  9994,2 51726  53.2150 287.9479 0001259 100.8945 259.2189 15.08827188 55126,6917.92,95.438,540.656,538.914,0.0
51726.0,STARLINK-3527,PAYLOAD,2023-02-18 22:15:28,15.08845107,0.0001066,53.2142,283.4876,107.8506,252.2603,0.00049337,7.574e-05,0.0,0 STARLINK-3527,1 51726U 22016N   23049.92741233  .00007574  00000-0  49337-3 0  9993,2 51726  53.2142 283.4876 0001066 107.8506 252.2603 15.08845107 56334,6917.865,95.437,540.467,538.992,0.0
51726.0,STARLINK-3527,PAYLOAD,2023-02-19 14:09:19,15.08849722,9.88e-05,53.2138,280.5136,104.4836,255.6266,0.00036962,5.601e-05,0.0,0 STARLINK-3527,1 51726U 22016N   23050.58981023  .00005601  00000-0  36962-3 0  9999,2 51726  53.2138 280.5136 0000988 104.4836 255.6266 15.08849722 55379,6917.851,95.437,540.399,539.032,0.0
